SWARM A                 
1 39452U 13067B   26164.21920741  .00010986  00000+0  18941-3 0  9994
2 39452  87.3336  57.7162 0002993  94.5386 265.6217 15.50881602705637
SWARM C                 
1 39453U 13067C   26164.21909046  .00010224  00000+0  17625-3 0  9993
2 39453  87.3335  56.2973 0002989  94.8606 265.2997 15.50878502705595
BRITE-CA1 (TORONTO)     
1 40020U 14033L   26163.89316560  .00000640  00000+0  10400-3 0  9990
2 40020  97.9733 292.9004 0077304 291.0150  68.2801 14.72671132641584
OCO 2                   
1 40059U 14035A   26164.17264295  .00000359  00000+0  89713-4 0  9994
2 40059  98.2018 105.5268 0001493  86.2613 273.8756 14.57108199635465
BRITE-PL2 (HEWELIUSZ)   
1 40119U 14049B   26164.28928686  .00001445  00000+0  13884-3 0  9991
2 40119  97.9094 276.2593 0015171 120.0264 240.2463 14.94581695640866
MMS 1                   
1 40482U 15011A   26164.33335648 -.00000302  00000+0  00000+0 0  9994
2 40482  72.1431 348.8349 8321767 167.3928 265.3987  0.28398720  1399
MMS 2                   
1 40483U 15011B   26164.33335648 -.00000302  00000+0  00000+0 0  9995
2 40483  72.1427 348.8370 8322582 167.4008 265.3787  0.28401277  1395
MMS 3                   
1 40484U 15011C   26164.33335648 -.00000302  00000+0  00000+0 0  9996
2 40484  72.1464 348.8416 8321733 167.3929 265.3832  0.28398690  1391
MMS 4                   
1 40485U 15011D   26164.33335648 -.00000302  00000+0  00000+0 0  9997
2 40485  72.1425 348.8373 8321342 167.4008 265.3717  0.28398673  1399
ASTROSAT                
1 40930U 15052A   26163.98778038  .00001545  00000+0  10626-3 0  9999
2 40930   5.9957 185.5868 0008182 331.6394  28.3289 14.82501158579202
DAMPE                   
1 41173U 15078A   26164.24631499  .00001617  00000+0  56847-4 0  9992
2 41173  97.4557 169.6939 0013820  89.3098 270.9727 15.30776965583941
PISAT                   
1 41784U 16059B   26164.26141311  .00000828  00000+0  14858-3 0  9999
2 41784  97.8179 164.8829 0028072 215.6825 144.2506 14.68977432519168
HXMT (HUIYAN)           
1 42758U 17034A   26164.31917233  .00003859  00000+0  19336-3 0  9998
2 42758  43.0129 204.5796 0030260 121.7712 238.6090 15.18456282497079
FLYING LAPTOP           
1 42831U 17042G   26164.31934940  .00003810  00000+0  30084-3 0  9993
2 42831  97.4666 320.0011 0019416 134.2856 225.9965 15.01122379485876
ZHANGHENG 1-01 (CSES-1) 
1 43194U 18015C   26164.25696028  .00007775  00000+0  35495-3 0  9997
2 43194  97.6860 329.8369 0017021 281.2443  78.6879 15.20765447464048
SALSAT                  
1 46495U 20068K   26164.15546278  .00007973  00000+0  27935-3 0  9995
2 46495  97.8846 166.9746 0008357 325.1548  34.9143 15.29744309314749
IXPE                    
1 49954U 21121A   26164.33335648  .00009643  00000+0  51741-3 0  9994
2 49954   0.2323 346.7938 0007349  17.3300 166.1369 15.10214885  5899
SMILE                   
1 69123U 26109A   26144.65318427 -.00001976  00000+0 -42379-3 0  9994
2 69123  70.0007 229.2745 0009123 259.5159 100.4951 14.57062785   802
